[
    {
        "Altitude(m)": 612502.2425337771,
        "Argument of Periapsis(deg)": 0.0,
        "Eccentricity": 0.0,
        "Inclination(deg)": 60.0,
        "Latitude(deg)": -28.13612821215045,
        "Longitude(deg)": -37.85171245453616,
        "Mean Anomaly(deg)": -32.7273,
        "RAAN(deg)": 80.0,
        "Satellite Name": "Test1 372",
        "Satellite Number": 372,
        "Semi-Major Axis(m)": 6980739.136638005,
        "Time(s)": 0
    },
    {
        "Altitude(m)": 612308.6897038374,
        "Argument of Periapsis(deg)": 0.00010418945913296404,
        "Eccentricity": 0.0,
        "Inclination(deg)": 60.0,
        "Latitude(deg)": -27.623183083705058,
        "Longitude(deg)": -37.49823862781205,
        "Mean Anomaly(deg)": -32.10719385453816,
        "RAAN(deg)": 79.99957995086025,
        "Satellite Name": "Test1 372",
        "Satellite Number": 372,
        "Semi-Major Axis(m)": 6980739.136638005,
        "Time(s)": 10
    }
]